{"type": "FeatureCollection", "features": [ {"type": "Feature", "properties": {"norad_id": 51444, "name": "CSG-2", "group": "resource", "lat": -36.70148690733224, "lon": -14.283968164066586, "alt_km": 629.6522588297148, "timestamp": "2025-12-16T08:59:42.816410+00:00", "meta": {"OBJECT_NAME": "CSG-2", "OBJECT_ID": "2022-008A", "EPOCH": "2025-12-14T21:59:39.018912", "MEAN_MOTION": 14.82165966, "ECCENTRICITY": 0.0001469, "INCLINATION": 97.8808, "RA_OF_ASC_NODE": 170.2065, "ARG_OF_PERICENTER": 82.0603, "MEAN_ANOMALY": 278.0777, "EPHEMERIS_TYPE": 0, "CLASSIFICATION_TYPE": "U", "NORAD_CAT_ID": 51444, "ELEMENT_SET_NO": 999, "REV_AT_EPOCH": 20929, "BSTAR": 5.0769599e-05, "MEAN_MOTION_DOT": 3.52e-06, "MEAN_MOTION_DDOT": 0}, "tle": {"line1": "1 51444U 22008A   25348.91642383  .00000352  00000+0  50770-4 0  9990", "line2": "2 51444  97.8808 170.2065 0001469  82.0603 278.0777 14.82165966209298"}}, "geometry": {"type": "Point", "coordinates": [-14.283968164066586, -36.70148690733224]}}, {"type": "Feature", "properties": {"norad_id": 52912, "name": "GAOFEN-12 03", "group": "resource", "lat": 77.126704592718, "lon": 94.76530008536014, "alt_km": 622.1884306294241, "timestamp": "2025-12-16T08:59:42.816420+00:00", "meta": {"OBJECT_NAME": "GAOFEN-12 03", "OBJECT_ID": "2022-069A", "EPOCH": "2025-12-15T22:48:21.509280", "MEAN_MOTION": 14.79618837, "ECCENTRICITY": 0.00021615, "INCLINATION": 97.8485, "RA_OF_ASC_NODE": 237.2252, "ARG_OF_PERICENTER": 57.2465, "MEAN_ANOMALY": 302.8955, "EPHEMERIS_TYPE": 0, "CLASSIFICATION_TYPE": "U", "NORAD_CAT_ID": 52912, "ELEMENT_SET_NO": 999, "REV_AT_EPOCH": 18751, "BSTAR": 0.00015709126, "MEAN_MOTION_DOT": 1.127e-05, "MEAN_MOTION_DDOT": 0}, "tle": {"line1": "1 52912U 22069A   25349.95024895  .00001127  00000+0  15709-3 0  9998", "line2": "2 52912  97.8485 237.2252 0002161  57.2465 302.8955 14.79618837187512"}}, "geometry": {"type": "Point", "coordinates": [94.76530008536014, 77.126704592718]}}, {"type": "Feature", "properties": {"norad_id": 54754, "name": "SWOT", "group": "resource", "lat": 58.533931464166166, "lon": 81.03380904527702, "alt_km": 887.1313304883388, "timestamp": "2025-12-16T08:59:42.816430+00:00", "meta": {"OBJECT_NAME": "SWOT", "OBJECT_ID": "2022-173A", "EPOCH": "2025-12-15T22:08:20.410080", "MEAN_MOTION": 14.00167371, "ECCENTRICITY": 3.589e-05, "INCLINATION": 77.6107, "RA_OF_ASC_NODE": 282.6933, "ARG_OF_PERICENTER": 104.4183, "MEAN_ANOMALY": 255.7008, "EPHEMERIS_TYPE": 0, "CLASSIFICATION_TYPE": "U", "NORAD_CAT_ID": 54754, "ELEMENT_SET_NO": 999, "REV_AT_EPOCH": 15350, "BSTAR": 6.2884058e-05, "MEAN_MOTION_DOT": 9e-07, "MEAN_MOTION_DDOT": 0}, "tle": {"line1": "1 54754U 22173A   25349.92245845  .00000090  00000+0  62884-4 0  9992", "line2": "2 54754  77.6107 282.6933 0000358 104.4183 255.7008 14.00167371153506"}}, "geometry": {"type": "Point", "coordinates": [81.03380904527702, 58.533931464166166]}}, {"type": "Feature", "properties": {"norad_id": 57654, "name": "GAOFEN-12 04", "group": "resource", "lat": -82.02009066421166, "lon": -11.136613337223991, "alt_km": 638.4429886859753, "timestamp": "2025-12-16T08:59:42.816440+00:00", "meta": {"OBJECT_NAME": "GAOFEN-12 04", "OBJECT_ID": "2023-123A", "EPOCH": "2025-12-15T23:39:34.099776", "MEAN_MOTION": 14.79709536, "ECCENTRICITY": 0.00012714, "INCLINATION": 97.9123, "RA_OF_ASC_NODE": 265.6936, "ARG_OF_PERICENTER": 74.4983, "MEAN_ANOMALY": 285.6369, "EPHEMERIS_TYPE": 0, "CLASSIFICATION_TYPE": "U", "NORAD_CAT_ID": 57654, "ELEMENT_SET_NO": 999, "REV_AT_EPOCH": 12553, "BSTAR": 0.00017620719, "MEAN_MOTION_DOT": 1.272e-05, "MEAN_MOTION_DDOT": 0}, "tle": {"line1": "1 57654U 23123A   25349.98581134  .00001272  00000+0  17621-3 0  9991", "line2": "2 57654  97.9123 265.6936 0001271  74.4983 285.6369 14.79709536125539"}}, "geometry": {"type": "Point", "coordinates": [-11.136613337223991, -82.02009066421166]}}, {"type": "Feature", "properties": {"norad_id": 59065, "name": "PARS 1", "group": "resource", "lat": 28.233828987485005, "lon": -42.651312524918076, "alt_km": 434.71630932079734, "timestamp": "2025-12-16T08:59:42.816451+00:00", "meta": {"OBJECT_NAME": "PARS 1", "OBJECT_ID": "2024-039Q", "EPOCH": "2025-12-15T23:31:18.628608", "MEAN_MOTION": 15.41050537, "ECCENTRICITY": 0.0012376, "INCLINATION": 97.4631, "RA_OF_ASC_NODE": 320.9819, "ARG_OF_PERICENTER": 62.5003, "MEAN_ANOMALY": 297.75, "EPHEMERIS_TYPE": 0, "CLASSIFICATION_TYPE": "U", "NORAD_CAT_ID": 59065, "ELEMENT_SET_NO": 999, "REV_AT_EPOCH": 10038, "BSTAR": 0.00022688796, "MEAN_MOTION_DOT": 9.308e-05, "MEAN_MOTION_DDOT": 0}, "tle": {"line1": "1 59065U 24039Q   25349.98007672  .00009308  00000+0  22689-3 0  9994", "line2": "2 59065  97.4631 320.9819 0012376  62.5003 297.7500 15.41050537100387"}}, "geometry": {"type": "Point", "coordinates": [-42.651312524918076, 28.233828987485005]}}, {"type": "Feature", "properties": {"norad_id": 59371, "name": "RESURS-P 4", "group": "resource", "lat": 53.45620469191686, "lon": -73.26655490870999, "alt_km": 463.660944146116, "timestamp": "2025-12-16T08:59:42.816462+00:00", "meta": {"OBJECT_NAME": "RESURS-P 4", "OBJECT_ID": "2024-061A", "EPOCH": "2025-12-15T23:21:18.575424", "MEAN_MOTION": 15.32112121, "ECCENTRICITY": 0.00012714, "INCLINATION": 97.2544, "RA_OF_ASC_NODE": 296.2368, "ARG_OF_PERICENTER": 54.8101, "MEAN_ANOMALY": 305.326, "EPHEMERIS_TYPE": 0, "CLASSIFICATION_TYPE": "U", "NORAD_CAT_ID": 59371, "ELEMENT_SET_NO": 999, "REV_AT_EPOCH": 9570, "BSTAR": 0.00011189904, "MEAN_MOTION_DOT": 3.393e-05, "MEAN_MOTION_DDOT": 0}, "tle": {"line1": "1 59371U 24061A   25349.97313166  .00003393  00000+0  11190-3 0  9999", "line2": "2 59371  97.2544 296.2368 0001271  54.8101 305.3260 15.32112121 95703"}}, "geometry": {"type": "Point", "coordinates": [-73.26655490870999, 53.45620469191686]}}, {"type": "Feature", "properties": {"norad_id": 59625, "name": "LEGION 1", "group": "resource", "lat": 73.62704147836763, "lon": 38.25720283421285, "alt_km": 511.14106932906543, "timestamp": "2025-12-16T08:59:42.816472+00:00", "meta": {"OBJECT_NAME": "LEGION 1", "OBJECT_ID": "2024-081A", "EPOCH": "2025-12-15T21:34:43.704480", "MEAN_MOTION": 15.16513038, "ECCENTRICITY": 0.00038031, "INCLINATION": 97.5215, "RA_OF_ASC_NODE": 64.5106, "ARG_OF_PERICENTER": 303.8835, "MEAN_ANOMALY": 56.2036, "EPHEMERIS_TYPE": 0, "CLASSIFICATION_TYPE": "U", "NORAD_CAT_ID": 59625, "ELEMENT_SET_NO": 999, "REV_AT_EPOCH": 8975, "BSTAR": 0.00021189928, "MEAN_MOTION_DOT": 4.062e-05, "MEAN_MOTION_DDOT": 0}, "tle": {"line1": "1 59625U 24081A   25349.89911695  .00004062  00000+0  21190-3 0  9990", "line2": "2 59625  97.5215  64.5106 0003803 303.8835  56.2036 15.16513038 89758"}}, "geometry": {"type": "Point", "coordinates": [38.25720283421285, 73.62704147836763]}}, {"type": "Feature", "properties": {"norad_id": 59626, "name": "LEGION 2", "group": "resource", "lat": -73.57222591177087, "lon": -141.55488152143303, "alt_km": 520.1023695456897, "timestamp": "2025-12-16T08:59:42.816483+00:00", "meta": {"OBJECT_NAME": "LEGION 2", "OBJECT_ID": "2024-081B", "EPOCH": "2025-12-15T22:22:15.112704", "MEAN_MOTION": 15.16526622, "ECCENTRICITY": 0.00056218, "INCLINATION": 97.5218, "RA_OF_ASC_NODE": 64.6307, "ARG_OF_PERICENTER": 280.0572, "MEAN_ANOMALY": 80.0027, "EPHEMERIS_TYPE": 0, "CLASSIFICATION_TYPE": "U", "NORAD_CAT_ID": 59626, "ELEMENT_SET_NO": 999, "REV_AT_EPOCH": 8976, "BSTAR": 0.00018734775, "MEAN_MOTION_DOT": 3.586e-05, "MEAN_MOTION_DDOT": 0}, "tle": {"line1": "1 59626U 24081B   25349.93211936  .00003586  00000+0  18735-3 0  9998", "line2": "2 59626  97.5218  64.6307 0005621 280.0572  80.0027 15.16526622 89769"}}, "geometry": {"type": "Point", "coordinates": [-141.55488152143303, -73.57222591177087]}}, {"type": "Feature", "properties": {"norad_id": 60182, "name": "ALOS-4 (DAICHI-4)", "group": "resource", "lat": 31.005308218147384, "lon": -90.02913265139526, "alt_km": 628.6592127448057, "timestamp": "2025-12-16T08:59:42.816493+00:00", "meta": {"OBJECT_NAME": "ALOS-4 (DAICHI-4)", "OBJECT_ID": "2024-123A", "EPOCH": "2025-12-16T00:12:36.469152", "MEAN_MOTION": 14.79474959, "ECCENTRICITY": 0.00014303, "INCLINATION": 97.9226, "RA_OF_ASC_NODE": 84.8093, "ARG_OF_PERICENTER": 100.3975, "MEAN_ANOMALY": 259.7397, "EPHEMERIS_TYPE": 0, "CLASSIFICATION_TYPE": "U", "NORAD_CAT_ID": 60182, "ELEMENT_SET_NO": 999, "REV_AT_EPOCH": 7879, "BSTAR": 0.00022000961, "MEAN_MOTION_DOT": 1.592e-05, "MEAN_MOTION_DDOT": 0}, "tle": {"line1": "1 60182U 24123A   25350.00875543  .00001592  00000+0  22001-3 0  9990", "line2": "2 60182  97.9226  84.8093 0001430 100.3975 259.7397 14.79474959 78791"}}, "geometry": {"type": "Point", "coordinates": [-90.02913265139526, 31.005308218147384]}}, {"type": "Feature", "properties": {"norad_id": 60452, "name": "LEGION 3", "group": "resource", "lat": -22.339343633420043, "lon": -93.636123143918, "alt_km": 524.3410615996954, "timestamp": "2025-12-16T08:59:42.816504+00:00", "meta": {"OBJECT_NAME": "LEGION 3", "OBJECT_ID": "2024-146A", "EPOCH": "2025-12-15T20:29:06.193824", "MEAN_MOTION": 15.15797043, "ECCENTRICITY": 0.00152486, "INCLINATION": 45.0021, "RA_OF_ASC_NODE": 293.4392, "ARG_OF_PERICENTER": 215.5515, "MEAN_ANOMALY": 144.4348, "EPHEMERIS_TYPE": 0, "CLASSIFICATION_TYPE": "U", "NORAD_CAT_ID": 60452, "ELEMENT_SET_NO": 999, "REV_AT_EPOCH": 7420, "BSTAR": 0.0002341463, "MEAN_MOTION_DOT": 4.295e-05, "MEAN_MOTION_DDOT": 0}, "tle": {"line1": "1 60452U 24146A   25349.85354391  .00004295  00000+0  23415-3 0  9992", "line2": "2 60452  45.0021 293.4392 0015248 215.5515 144.4348 15.15797043 74200"}}, "geometry": {"type": "Point", "coordinates": [-93.636123143918, -22.339343633420043]}}]}